{"spkid": "50163768", "covariance": {"epoch": "2458137.5", "labels": ["e", "q", "tp", "node", "peri", "i"], "data": [["3.27149776290175E-16", "-8.510770368035331E-16", "4.173318485534538E-14", "-6.989726750328603E-14", "5.966052083126655E-14", "-1.47573485844665E-14"], ["-8.510770368035331E-16", "2.219124222198325E-15", "-5.251840999465508E-14", "1.846092410176945E-13", "-1.351972399561386E-13", "3.794464911190507E-14"], ["4.173318485534538E-14", "-5.251840999465508E-14", "7.285241787150768E-10", "3.872734105795732E-11", "2.967504312634728E-10", "-4.566367151032371E-12"], ["-6.989726750328603E-14", "1.846092410176945E-13", "3.872734105795732E-11", "2.459097935800485E-10", "-2.132173615430911E-10", "1.216466668171524E-12"], ["5.966052083126655E-14", "-1.351972399561386E-13", "2.967504312634728E-10", "-2.132173615430911E-10", "3.573054182617566E-10", "-5.504520342572266E-13"], ["-1.47573485844665E-14", "3.794464911190507E-14", "-4.566367151032371E-12", "1.216466668171524E-12", "-5.504520342572266E-13", "1.832295367265414E-11"]], "elements": [{"value": ".5981164763863925", "title": "eccentricity", "units": null, "name": "e", "sigma": 1.80872821698058e-08, "label": "e"}, {"label": "q", "sigma": 4.71075813664672e-08, "name": "q", "title": "perihelion distance", "value": "1.052056897714878", "units": "au"}, {"name": "tp", "sigma": 2.69911870564278e-05, "value": "2457619.027083081947", "title": "time of perihelion passage", "units": "TDB", "label": "tp"}, {"label": "node", "units": "deg", "title": "longitude of the ascending node", "value": "82.93029747979891", "sigma": 1.56815112020509e-05, "name": "om"}, {"label": "peri", "title": "argument of perihelion", "value": "353.4167332782001", "units": "deg", "name": "w", "sigma": 1.89025241240887e-05}, {"units": "deg", "value": "10.56137018006055", "title": "inclination", "sigma": 4.2805319380486e-06, "name": "i", "label": "i"}]}, "elements": [{"label": "e", "units": null, "title": "eccentricity", "value": ".6039621925367576", "name": "e", "sigma": "1.8483E-8"}, {"units": "au", "title": "semi-major axis", "value": "2.602987864858107", "name": "a", "sigma": "9.9277E-9", "label": "a"}, {"label": "q", "name": "q", "sigma": "4.8756E-8", "units": "au", "title": "perihelion distance", "value": "1.030881606851831"}, {"name": "i", "sigma": "4.3121E-6", "title": "inclination; angle with respect to x-y ecliptic plane", "value": "10.62430581036231", "units": "deg", "label": "i"}, {"label": "node", "sigma": "1.5627E-5", "name": "om", "units": "deg", "value": "82.8307982014156", "title": "longitude of the ascending node"}, {"value": "353.8349256711313", "title": "argument of perihelion", "units": "deg", "sigma": "1.8605E-5", "name": "w", "label": "peri"}, {"label": "M", "units": "deg", "value": "117.7506684642488", "title": "mean anomaly", "sigma": "9.6162E-6", "name": "ma"}, {"units": "TDB", "value": "2460698.772942594581", "title": "time of perihelion passage", "name": "tp", "sigma": "3.815E-5", "label": "tp"}, {"label": "period", "sigma": "8.7755E-6", "name": "per", "units": "d", "value": "1533.933887779081", "title": "sidereal orbital period"}, {"name": "n", "sigma": "1.3427E-9", "units": "deg/d", "title": "mean motion", "value": ".2346906883459162", "label": "n"}, {"label": "Q", "title": "aphelion distance", "value": "4.175094122864382", "units": "au", "name": "ad", "sigma": "1.5924E-8"}], "epoch": "2461200.5"}